OBJECT_NAME,OBJECT_ID,EPOCH,MEAN_MOTION,ECCENTRICITY,INCLINATION,RA_OF_ASC_NODE,ARG_OF_PERICENTER,MEAN_ANOMALY,EPHEMERIS_TYPE,CLASSIFICATION_TYPE,NORAD_CAT_ID,ELEMENT_SET_NO,REV_AT_EPOCH,BSTAR,MEAN_MOTION_DOT,MEAN_MOTION_DDOT
HULIANWANG DIGUI-53,2025-168E,2026-07-14T04:37:01.522272,13.29326147,.000897,50.0020,228.8395,176.7753,183.3178,0,U,65110,999,4628,.75521E-4,-.89E-6,0
HULIANWANG DIGUI-54,2025-168F,2026-07-14T04:01:13.384992,13.29326221,.0010787,49.9970,228.5712,180.9988,179.0864,0,U,65111,999,4628,.74086E-4,-.9E-6,0
HULIANWANG DIGUI-55,2025-168G,2026-07-14T04:25:07.922208,13.29322520,.0011856,49.9976,228.6707,177.0365,183.0579,0,U,65112,999,4628,.71953E-4,-.91E-6,0
HULIANWANG DIGUI-56,2025-168H,2026-07-14T04:13:12.029088,13.29321994,.0012005,49.9968,228.6040,196.8230,163.2245,0,U,65113,999,4628,.72619E-4,-.9E-6,0
HULIANWANG DIGUI-57,2025-168J,2026-07-14T03:49:14.084256,13.29326154,.0009627,49.9996,228.6004,189.0371,171.0329,0,U,65114,999,4629,.64923E-4,-.94E-6,0
QPS-SAR-12 (KUSHINADA-I),2025-169A,2026-07-13T12:33:14.817024,15.01059937,.0007014,42.0100,230.9316,17.6710,342.4359,0,U,65116,999,5137,.15528E-3,.1833E-4,0
GEESAT-4 01,2025-170A,2026-07-14T03:59:01.843584,14.84073921,.0010332,49.9891,49.3366,153.1752,206.9722,0,U,65119,999,5044,.12444E-3,.821E-5,0
GEESAT-4 02,2025-170B,2026-07-14T03:43:25.727232,14.84063352,.0009715,49.9865,49.1894,190.9154,169.1575,0,U,65120,999,5046,.11642E-3,.753E-5,0
GEESAT-4 03,2025-170C,2026-07-14T04:30:26.264736,14.84080156,.0020273,49.9934,48.8765,164.4106,195.7461,0,U,65121,999,5044,.12663E-3,.839E-5,0
GEESAT-4 04,2025-170D,2026-07-14T02:34:19.875072,14.82225805,.002976,49.9716,3.2051,56.5826,303.7952,0,U,65122,999,5104,.12244E-3,.763E-5,0
GEESAT-4 05,2025-170E,2026-07-14T01:45:30.387168,14.82226130,.0007852,49.9962,4.2557,65.3645,294.8110,0,U,65123,999,5103,.1216E-3,.756E-5,0
GEESAT-4 06,2025-170F,2026-07-14T03:26:50.789760,14.84103085,.0018743,49.9849,49.0633,143.8885,216.3323,0,U,65124,999,5043,.12653E-3,.838E-5,0
GEESAT-4 07,2025-170G,2026-07-14T04:47:25.321632,14.84121105,.0018057,49.9929,48.9456,157.2293,202.9450,0,U,65125,999,5044,.12688E-3,.842E-5,0
GEESAT-4 08,2025-170H,2026-07-14T00:32:10.481856,14.82210893,.0020799,49.9671,3.2054,85.4150,274.9163,0,U,65126,999,5103,.12727E-3,.8E-5,0
GEESAT-4 09,2025-170J,2026-07-14T04:48:44.106336,14.81465045,.0021977,49.9919,79.1866,133.7649,226.5111,0,U,65127,999,5000,.12127E-3,.736E-5,0
GEESAT-4 10,2025-170K,2026-07-14T03:00:05.927040,14.82252061,.0024772,49.9794,2.7726,34.3757,325.8778,0,U,65128,999,5105,.11651E-3,.714E-5,0
GEESAT-4 11,2025-170L,2026-07-14T04:14:30.742080,14.84081930,.000698,49.9849,48.5654,193.6128,166.4623,0,U,65129,999,5044,.12117E-3,.794E-5,0
KUIPER-00081,2025-171A,2026-07-13T12:43:17.652288,14.79932033,.0000527,51.9017,311.6084,109.8472,250.2547,0,U,65132,999,5167,.26027E-3,.1763E-4,0
KUIPER-00088,2025-171B,2026-07-13T13:53:21.832224,14.79932199,.0000581,51.9022,328.8952,119.2107,240.8914,0,U,65133,999,5143,.10552E-3,.583E-5,0
KUIPER-00095,2025-171C,2026-07-13T12:47:11.009184,14.79933452,.0000434,51.8988,309.1461,112.6567,247.4441,0,U,65134,999,5170,.24764E-3,.1667E-4,0
KUIPER-00096,2025-171D,2026-07-13T13:16:23.028384,14.79929150,.000038,51.9023,321.5064,119.9120,240.1880,0,U,65135,999,5153,.25408E-3,.1716E-4,0
KUIPER-00097,2025-171E,2026-07-13T13:12:31.655232,14.79931837,.0000434,51.9032,324.1746,104.3998,255.7012,0,U,65136,999,5148,.70215E-4,.314E-5,0
KUIPER-00098,2025-171F,2026-07-13T14:45:51.840576,14.79933350,.000042,51.9026,326.2521,105.7016,254.3993,0,U,65137,999,5081,.27354E-3,.1865E-4,0
KUIPER-00099,2025-171G,2026-07-13T14:12:46.499904,14.79933188,.0000542,51.9046,316.3585,115.7587,244.3431,0,U,65138,999,5160,.25875E-3,.1752E-4,0
KUIPER-00100,2025-171H,2026-07-14T04:03:12.635136,14.79936257,.0000437,51.9029,311.2784,103.0457,257.0554,0,U,65139,999,5172,.26478E-3,.1798E-4,0
KUIPER-00102,2025-171J,2026-07-13T18:15:50.007744,14.79965880,.0000741,51.9008,315.5751,6.4115,353.6857,0,U,65140,999,5162,-.26568E-3,-.2247E-4,0
KUIPER-00103,2025-171K,2026-07-13T15:22:49.694880,14.79932806,.0000468,51.9002,333.5989,105.6142,254.4872,0,U,65141,999,5136,.25901E-3,.1754E-4,0
KUIPER-00104,2025-171L,2026-07-13T15:42:14.893056,14.79933233,.0000477,51.9039,321.0400,118.4286,241.6725,0,U,65142,999,5154,.70712E-4,.318E-5,0
KUIPER-00105,2025-171M,2026-07-13T16:19:14.496960,14.79931944,.0000494,51.9023,328.5273,110.5033,249.5982,0,U,65143,999,5144,.38839E-4,.75E-6,0
KUIPER-00106,2025-171N,2026-07-13T12:36:58.872960,14.79931638,.0000479,51.9028,307.9719,104.8102,255.2914,0,U,65144,999,5172,-.45899E-5,-.256E-5,0
