HULIANWANG DIGUI-53     
1 65110U 25168E   26195.19237873 -.00000089  00000+0  75521-4 0  9999
2 65110  50.0020 228.8395 0008970 176.7753 183.3178 13.29326147 46288
HULIANWANG DIGUI-54     
1 65111U 25168F   26195.16751603 -.00000090  00000+0  74086-4 0  9996
2 65111  49.9970 228.5712 0010787 180.9988 179.0864 13.29326221 46283
HULIANWANG DIGUI-55     
1 65112U 25168G   26195.18411947 -.00000091  00000+0  71953-4 0  9994
2 65112  49.9976 228.6707 0011856 177.0365 183.0579 13.29322520 46285
HULIANWANG DIGUI-56     
1 65113U 25168H   26195.17583367 -.00000090  00000+0  72619-4 0  9999
2 65113  49.9968 228.6040 0012005 196.8230 163.2245 13.29321994 46288
HULIANWANG DIGUI-57     
1 65114U 25168J   26195.15919079 -.00000094  00000+0  64923-4 0  9994
2 65114  49.9996 228.6004 0009627 189.0371 171.0329 13.29326154 46290
QPS-SAR-12 (KUSHINADA-I)
1 65116U 25169A   26194.52308816  .00001833  00000+0  15528-3 0  9995
2 65116  42.0100 230.9316 0007014  17.6710 342.4359 15.01059937 51372
GEESAT-4 01             
1 65119U 25170A   26195.16599356  .00000821  00000+0  12444-3 0  9992
2 65119  49.9891  49.3366 0010332 153.1752 206.9722 14.84073921 50448
GEESAT-4 02             
1 65120U 25170B   26195.15515888  .00000753  00000+0  11642-3 0  9994
2 65120  49.9865  49.1894 0009715 190.9154 169.1575 14.84063352 50468
GEESAT-4 03             
1 65121U 25170C   26195.18780399  .00000839  00000+0  12663-3 0  9998
2 65121  49.9934  48.8765 0020273 164.4106 195.7461 14.84080156 50442
GEESAT-4 04             
1 65122U 25170D   26195.10717448  .00000763  00000+0  12244-3 0  9997
2 65122  49.9716   3.2051 0029760  56.5826 303.7952 14.82225805 51047
GEESAT-4 05             
1 65123U 25170E   26195.07326837  .00000756  00000+0  12160-3 0  9991
2 65123  49.9962   4.2557 0007852  65.3645 294.8110 14.82226130 51035
GEESAT-4 06             
1 65124U 25170F   26195.14364340  .00000838  00000+0  12653-3 0  9999
2 65124  49.9849  49.0633 0018743 143.8885 216.3323 14.84103085 50434
GEESAT-4 07             
1 65125U 25170G   26195.19959863  .00000842  00000+0  12688-3 0  9998
2 65125  49.9929  48.9456 0018057 157.2293 202.9450 14.84121105 50441
GEESAT-4 08             
1 65126U 25170H   26195.02234354  .00000800  00000+0  12727-3 0  9990
2 65126  49.9671   3.2054 0020799  85.4150 274.9163 14.82210893 51031
GEESAT-4 09             
1 65127U 25170J   26195.20051049  .00000736  00000+0  12127-3 0  9991
2 65127  49.9919  79.1866 0021977 133.7649 226.5111 14.81465045 50001
GEESAT-4 10             
1 65128U 25170K   26195.12506860  .00000714  00000+0  11651-3 0  9996
2 65128  49.9794   2.7726 0024772  34.3757 325.8778 14.82252061 51053
GEESAT-4 11             
1 65129U 25170L   26195.17674470  .00000794  00000+0  12117-3 0  9991
2 65129  49.9849  48.5654 0006980 193.6128 166.4623 14.84081930 50442
KUIPER-00081            
1 65132U 25171A   26194.53006542  .00001763  00000+0  26027-3 0  9996
2 65132  51.9017 311.6084 0000527 109.8472 250.2547 14.79932033 51675
KUIPER-00088            
1 65133U 25171B   26194.57872491  .00000583  00000+0  10552-3 0  9990
2 65133  51.9022 328.8952 0000581 119.2107 240.8914 14.79932199 51436
KUIPER-00095            
1 65134U 25171C   26194.53276631  .00001667  00000+0  24764-3 0  9995
2 65134  51.8988 309.1461 0000434 112.6567 247.4441 14.79933452 51709
KUIPER-00096            
1 65135U 25171D   26194.55304431  .00001716  00000+0  25408-3 0  9999
2 65135  51.9023 321.5064 0000380 119.9120 240.1880 14.79929150 51531
KUIPER-00097            
1 65136U 25171E   26194.55036638  .00000314  00000+0  70215-4 0  9991
2 65136  51.9032 324.1746 0000434 104.3998 255.7012 14.79931837 51487
KUIPER-00098            
1 65137U 25171F   26194.61518334  .00001865  00000+0  27354-3 0  9994
2 65137  51.9026 326.2521 0000420 105.7016 254.3993 14.79933350 50817
KUIPER-00099            
1 65138U 25171G   26194.59220486  .00001752  00000+0  25875-3 0  9991
2 65138  51.9046 316.3585 0000542 115.7587 244.3431 14.79933188 51602
KUIPER-00100            
1 65139U 25171H   26195.16889624  .00001798  00000+0  26478-3 0  9991
2 65139  51.9029 311.2784 0000437 103.0457 257.0554 14.79936257 51728
KUIPER-00102            
1 65140U 25171J   26194.76099546 -.00002247  00000+0 -26568-3 0  9996
2 65140  51.9008 315.5751 0000741   6.4115 353.6857 14.79965880 51625
KUIPER-00103            
1 65141U 25171K   26194.64085295  .00001754  00000+0  25901-3 0  9990
2 65141  51.9002 333.5989 0000468 105.6142 254.4872 14.79932806 51369
KUIPER-00104            
1 65142U 25171L   26194.65433904  .00000318  00000+0  70712-4 0  9992
2 65142  51.9039 321.0400 0000477 118.4286 241.6725 14.79933233 51541
KUIPER-00105            
1 65143U 25171M   26194.68002890  .00000075  00000+0  38839-4 0  9996
2 65143  51.9023 328.5273 0000494 110.5033 249.5982 14.79931944 51445
KUIPER-00106            
1 65144U 25171N   26194.52568140 -.00000256  00000+0 -45899-5 0  9993
2 65144  51.9028 307.9719 0000479 104.8102 255.2914 14.79931638 51723
